{"type": "FeatureCollection", "features": [ {"type": "Feature", "properties": {"norad_id": 66639, "name": "STARLINK-35908", "group": "last-30-days", "lat": 51.924476196917134, "lon": -121.88037114017271, "alt_km": 410.8581671220172, "timestamp": "2025-12-17T09:00:15.890650+00:00", "meta": {"OBJECT_NAME": "STARLINK-35908", "OBJECT_ID": "2025-271Y", "EPOCH": "2025-12-16T21:49:30.476064", "MEAN_MOTION": 15.49334153, "ECCENTRICITY": 9.351e-05, "INCLINATION": 53.1593, "RA_OF_ASC_NODE": 167.2069, "ARG_OF_PERICENTER": 76.8706, "MEAN_ANOMALY": 283.2407, "EPHEMERIS_TYPE": 0, "CLASSIFICATION_TYPE": "U", "NORAD_CAT_ID": 66639, "ELEMENT_SET_NO": 999, "REV_AT_EPOCH": 485, "BSTAR": 0.0013178898, "MEAN_MOTION_DOT": 0.00073606, "MEAN_MOTION_DDOT": 0}, "tle": {"line1": "1 66639U 25271Y   25350.90938051  .00073606  00000+0  13179-2 0  9991", "line2": "2 66639  53.1593 167.2069 0000935  76.8706 283.2407 15.49334153  4851"}}, "geometry": {"type": "Point", "coordinates": [-121.88037114017271, 51.924476196917134]}}, {"type": "Feature", "properties": {"norad_id": 66640, "name": "STARLINK-35921", "group": "last-30-days", "lat": 52.331226542839964, "lon": -118.8236552701972, "alt_km": 410.63985092582243, "timestamp": "2025-12-17T09:00:15.890663+00:00", "meta": {"OBJECT_NAME": "STARLINK-35921", "OBJECT_ID": "2025-271Z", "EPOCH": "2025-12-16T21:49:00.787296", "MEAN_MOTION": 15.49334098, "ECCENTRICITY": 0.0001188, "INCLINATION": 53.1594, "RA_OF_ASC_NODE": 167.2047, "ARG_OF_PERICENTER": 76.3934, "MEAN_ANOMALY": 283.7208, "EPHEMERIS_TYPE": 0, "CLASSIFICATION_TYPE": "U", "NORAD_CAT_ID": 66640, "ELEMENT_SET_NO": 999, "REV_AT_EPOCH": 485, "BSTAR": 0.001272765, "MEAN_MOTION_DOT": 0.00071047, "MEAN_MOTION_DDOT": 0}, "tle": {"line1": "1 66640U 25271Z   25350.90903689  .00071047  00000+0  12728-2 0  9998", "line2": "2 66640  53.1594 167.2047 0001188  76.3934 283.7208 15.49334098  4851"}}, "geometry": {"type": "Point", "coordinates": [-118.8236552701972, 52.331226542839964]}}, {"type": "Feature", "properties": {"norad_id": 66641, "name": "STARLINK-35923", "group": "last-30-days", "lat": 53.13317671272258, "lon": -106.304076215573, "alt_km": 410.6344667176254, "timestamp": "2025-12-17T09:00:15.890673+00:00", "meta": {"OBJECT_NAME": "STARLINK-35923", "OBJECT_ID": "2025-271AA", "EPOCH": "2025-12-16T21:47:02.081472", "MEAN_MOTION": 15.49318746, "ECCENTRICITY": 0.00012532, "INCLINATION": 53.1595, "RA_OF_ASC_NODE": 167.1936, "ARG_OF_PERICENTER": 95.7181, "MEAN_ANOMALY": 264.3971, "EPHEMERIS_TYPE": 0, "CLASSIFICATION_TYPE": "U", "NORAD_CAT_ID": 66641, "ELEMENT_SET_NO": 999, "REV_AT_EPOCH": 485, "BSTAR": 0.00063127625, "MEAN_MOTION_DOT": 0.00034829, "MEAN_MOTION_DDOT": 0}, "tle": {"line1": "1 66641U 25271AA  25350.90766298  .00034829  00000+0  63128-3 0  9990", "line2": "2 66641  53.1595 167.1936 0001253  95.7181 264.3971 15.49318746  4855"}}, "geometry": {"type": "Point", "coordinates": [-106.304076215573, 53.13317671272258]}}, {"type": "Feature", "properties": {"norad_id": 66642, "name": "STARLINK-35926", "group": "last-30-days", "lat": 53.057170293117665, "lon": -109.46694597889771, "alt_km": 410.98671308208304, "timestamp": "2025-12-17T09:00:15.890683+00:00", "meta": {"OBJECT_NAME": "STARLINK-35926", "OBJECT_ID": "2025-271AB", "EPOCH": "2025-12-16T23:20:25.124928", "MEAN_MOTION": 15.49327481, "ECCENTRICITY": 6.721e-05, "INCLINATION": 53.1591, "RA_OF_ASC_NODE": 166.888, "ARG_OF_PERICENTER": 96.8117, "MEAN_ANOMALY": 263.2969, "EPHEMERIS_TYPE": 0, "CLASSIFICATION_TYPE": "U", "NORAD_CAT_ID": 66642, "ELEMENT_SET_NO": 999, "REV_AT_EPOCH": 482, "BSTAR": 0.00094000034, "MEAN_MOTION_DOT": 0.00052215, "MEAN_MOTION_DDOT": 0}, "tle": {"line1": "1 66642U 25271AB  25350.97251302  .00052215  00000+0  94000-3 0  9995", "line2": "2 66642  53.1591 166.8880 0000672  96.8117 263.2969 15.49327481  4829"}}, "geometry": {"type": "Point", "coordinates": [-109.46694597889771, 53.057170293117665]}}, {"type": "Feature", "properties": {"norad_id": 66643, "name": "STARLINK-35918", "group": "last-30-days", "lat": 52.65676846123799, "lon": -115.72301027028284, "alt_km": 410.5366825514111, "timestamp": "2025-12-17T09:00:15.890693+00:00", "meta": {"OBJECT_NAME": "STARLINK-35918", "OBJECT_ID": "2025-271AC", "EPOCH": "2025-12-16T21:48:31.140864", "MEAN_MOTION": 15.49331212, "ECCENTRICITY": 0.00012661, "INCLINATION": 53.1594, "RA_OF_ASC_NODE": 167.2025, "ARG_OF_PERICENTER": 80.4253, "MEAN_ANOMALY": 279.69, "EPHEMERIS_TYPE": 0, "CLASSIFICATION_TYPE": "U", "NORAD_CAT_ID": 66643, "ELEMENT_SET_NO": 999, "REV_AT_EPOCH": 485, "BSTAR": 0.0013639196, "MEAN_MOTION_DOT": 0.00076211, "MEAN_MOTION_DDOT": 0}, "tle": {"line1": "1 66643U 25271AC  25350.90869376  .00076211  00000+0  13639-2 0  9995", "line2": "2 66643  53.1594 167.2025 0001266  80.4253 279.6900 15.49331212  4855"}}, "geometry": {"type": "Point", "coordinates": [-115.72301027028284, 52.65676846123799]}}, {"type": "Feature", "properties": {"norad_id": 66644, "name": "STARLINK-35938", "group": "last-30-days", "lat": 52.90148983980883, "lon": -112.55653952851566, "alt_km": 410.89304545217874, "timestamp": "2025-12-17T09:00:15.890709+00:00", "meta": {"OBJECT_NAME": "STARLINK-35938", "OBJECT_ID": "2025-271AD", "EPOCH": "2025-12-16T21:48:01.380384", "MEAN_MOTION": 15.49339514, "ECCENTRICITY": 6.726e-05, "INCLINATION": 53.1592, "RA_OF_ASC_NODE": 167.2001, "ARG_OF_PERICENTER": 72.5764, "MEAN_ANOMALY": 287.5318, "EPHEMERIS_TYPE": 0, "CLASSIFICATION_TYPE": "U", "NORAD_CAT_ID": 66644, "ELEMENT_SET_NO": 999, "REV_AT_EPOCH": 485, "BSTAR": 0.0013569469, "MEAN_MOTION_DOT": 0.00075837, "MEAN_MOTION_DDOT": 0}, "tle": {"line1": "1 66644U 25271AD  25350.90834931  .00075837  00000+0  13569-2 0  9990", "line2": "2 66644  53.1592 167.2001 0000672  72.5764 287.5318 15.49339514  4851"}}, "geometry": {"type": "Point", "coordinates": [-112.55653952851566, 52.90148983980883]}}, {"type": "Feature", "properties": {"norad_id": 66645, "name": "SHENZHOU-22", "group": "last-30-days", "lat": -41.21317619300053, "lon": -94.08754924978584, "alt_km": 397.3387609466099, "timestamp": "2025-12-17T09:00:15.890719+00:00", "meta": {"OBJECT_NAME": "SHENZHOU-22", "OBJECT_ID": "2025-272A", "EPOCH": "2025-12-17T00:08:35.156544", "MEAN_MOTION": 15.59356604, "ECCENTRICITY": 0.00077847, "INCLINATION": 41.4682, "RA_OF_ASC_NODE": 350.8038, "ARG_OF_PERICENTER": 67.2573, "MEAN_ANOMALY": 292.9088, "EPHEMERIS_TYPE": 0, "CLASSIFICATION_TYPE": "U", "NORAD_CAT_ID": 66645, "ELEMENT_SET_NO": 999, "REV_AT_EPOCH": 26357, "BSTAR": 0.00024375831, "MEAN_MOTION_DOT": 0.00019519, "MEAN_MOTION_DDOT": 0}, "tle": {"line1": "1 66645U 25272A   25351.00596246  .00019519  00000+0  24376-3 0  9992", "line2": "2 66645  41.4682 350.8038 0007784  67.2573 292.9088 15.59356604263572"}}, "geometry": {"type": "Point", "coordinates": [-94.08754924978584, -41.21317619300053]}}, {"type": "Feature", "properties": {"norad_id": 66647, "name": "COSMOS 2597 (RODNIK-S 22)", "group": "last-30-days", "lat": -55.263035367956476, "lon": -87.38211476596778, "alt_km": 1499.9620874138, "timestamp": "2025-12-17T09:00:15.890729+00:00", "meta": {"OBJECT_NAME": "COSMOS 2597 (RODNIK-S 22)", "OBJECT_ID": "2025-273A", "EPOCH": "2025-12-16T21:42:17.131680", "MEAN_MOTION": 12.41952004, "ECCENTRICITY": 0.00076921, "INCLINATION": 82.4987, "RA_OF_ASC_NODE": 283.8631, "ARG_OF_PERICENTER": 276.8857, "MEAN_ANOMALY": 83.1347, "EPHEMERIS_TYPE": 0, "CLASSIFICATION_TYPE": "U", "NORAD_CAT_ID": 66647, "ELEMENT_SET_NO": 999, "REV_AT_EPOCH": 265, "BSTAR": -0.00013357379, "MEAN_MOTION_DOT": -8e-08, "MEAN_MOTION_DDOT": 0}, "tle": {"line1": "1 66647U 25273A   25350.90436495 -.00000008  00000+0 -13357-3 0  9994", "line2": "2 66647  82.4987 283.8631 0007692 276.8857  83.1347 12.41952004  2654"}}, "geometry": {"type": "Point", "coordinates": [-87.38211476596778, -55.263035367956476]}}, {"type": "Feature", "properties": {"norad_id": 66648, "name": "COSMOS 2598 (RODNIK-S 23)", "group": "last-30-days", "lat": 1.057936951590782, "lon": -76.29477072217209, "alt_km": 1499.9794055827842, "timestamp": "2025-12-17T09:00:15.890742+00:00", "meta": {"OBJECT_NAME": "COSMOS 2598 (RODNIK-S 23)", "OBJECT_ID": "2025-273B", "EPOCH": "2025-12-16T23:20:30.188832", "MEAN_MOTION": 12.43233394, "ECCENTRICITY": 0.00080402, "INCLINATION": 82.5025, "RA_OF_ASC_NODE": 283.8163, "ARG_OF_PERICENTER": 226.8098, "MEAN_ANOMALY": 133.2311, "EPHEMERIS_TYPE": 0, "CLASSIFICATION_TYPE": "U", "NORAD_CAT_ID": 66648, "ELEMENT_SET_NO": 999, "REV_AT_EPOCH": 266, "BSTAR": -0.00014009763, "MEAN_MOTION_DOT": -1e-07, "MEAN_MOTION_DDOT": 0}, "tle": {"line1": "1 66648U 25273B   25350.97257163 -.00000010  00000+0 -14010-3 0  9995", "line2": "2 66648  82.5025 283.8163 0008040 226.8098 133.2311 12.43233394  2664"}}, "geometry": {"type": "Point", "coordinates": [-76.29477072217209, 1.057936951590782]}}, {"type": "Feature", "properties": {"norad_id": 66649, "name": "COSMOS 2599 (RODNIK-S 24)", "group": "last-30-days", "lat": -82.22794532225878, "lon": -151.09269811219113, "alt_km": 1504.1619446192162, "timestamp": "2025-12-17T09:00:15.890766+00:00", "meta": {"OBJECT_NAME": "COSMOS 2599 (RODNIK-S 24)", "OBJECT_ID": "2025-273C", "EPOCH": "2025-12-16T21:52:10.170912", "MEAN_MOTION": 12.41150971, "ECCENTRICITY": 0.00062883, "INCLINATION": 82.5046, "RA_OF_ASC_NODE": 283.8822, "ARG_OF_PERICENTER": 268.4204, "MEAN_ANOMALY": 91.6154, "EPHEMERIS_TYPE": 0, "CLASSIFICATION_TYPE": "U", "NORAD_CAT_ID": 66649, "ELEMENT_SET_NO": 999, "REV_AT_EPOCH": 265, "BSTAR": -0.00011780656, "MEAN_MOTION_DOT": -6e-08, "MEAN_MOTION_DDOT": 0}, "tle": {"line1": "1 66649U 25273C   25350.91122883 -.00000006  00000+0 -11781-3 0  9997", "line2": "2 66649  82.5046 283.8822 0006288 268.4204  91.6154 12.41150971  2651"}}, "geometry": {"type": "Point", "coordinates": [-151.09269811219113, -82.22794532225878]}}]}